{
  "type": "FeatureCollection",
  "features": [
    {
      "type": "Feature",
      "properties": {
        "norad_id": 67109,
        "name": "STARLINK-35764",
        "group": "last-30-days",
        "lat": -11.340692369941905,
        "lon": 97.76986830101605,
        "alt_km": 286.8045093619112,
        "timestamp": "2025-12-21T03:56:49.619146+00:00",
        "meta_object_name": "STARLINK-35764",
        "meta_object_id": "2025-299H",
        "meta_epoch": "2025-12-20T20:00:01.999008",
        "meta_mean_motion": 15.96679126,
        "meta_eccentricity": 0.0001841,
        "meta_inclination": 42.9995,
        "meta_ra_of_asc_node": 267.4134,
        "meta_arg_of_pericenter": 266.809,
        "meta_mean_anomaly": 184.8551,
        "meta_ephemeris_type": 0,
        "meta_classification_type": "U",
        "meta_norad_cat_id": 67109,
        "meta_element_set_no": 999,
        "meta_rev_at_epoch": 200,
        "meta_bstar": -0.0032,
        "meta_mean_motion_dot": -0.01410551,
        "meta_mean_motion_ddot": 0.0005939,
        "tle_line1": "1 67109U 25299H   25354.83335647 -.01410551  59390-3 -32000-2 0  9993",
        "tle_line2": "2 67109  42.9995 267.4134 0001841 266.8090 184.8551 15.96679126  2001"
      },
      "geometry": {
        "type": "Point",
        "coordinates": [
          97.76986830101605,
          -11.340692369941905
        ]
      }
    },
    {
      "type": "Feature",
      "properties": {
        "norad_id": 67110,
        "name": "STARLINK-35781",
        "group": "last-30-days",
        "lat": -13.343650311571956,
        "lon": 100.07988098513984,
        "alt_km": 286.47536564064467,
        "timestamp": "2025-12-21T03:56:49.619157+00:00",
        "meta_object_name": "STARLINK-35781",
        "meta_object_id": "2025-299J",
        "meta_epoch": "2025-12-20T20:00:01.999008",
        "meta_mean_motion": 15.96900834,
        "meta_eccentricity": 0.000186,
        "meta_inclination": 42.9995,
        "meta_ra_of_asc_node": 267.4063,
        "meta_arg_of_pericenter": 270.6472,
        "meta_mean_anomaly": 183.7895,
        "meta_ephemeris_type": 0,
        "meta_classification_type": "U",
        "meta_norad_cat_id": 67110,
        "meta_element_set_no": 999,
        "meta_rev_at_epoch": 206,
        "meta_bstar": -0.0032382,
        "meta_mean_motion_dot": -0.01444518,
        "meta_mean_motion_ddot": 0.00062182,
        "tle_line1": "1 67110U 25299J   25354.83335647 -.01444518  62182-3 -32382-2 0  9991",
        "tle_line2": "2 67110  42.9995 267.4063 0001860 270.6472 183.7895 15.96900834  2060"
      },
      "geometry": {
        "type": "Point",
        "coordinates": [
          100.07988098513984,
          -13.343650311571956
        ]
      }
    },
    {
      "type": "Feature",
      "properties": {
        "norad_id": 67111,
        "name": "STARLINK-35875",
        "group": "last-30-days",
        "lat": -12.386491921237953,
        "lon": 98.96878752666922,
        "alt_km": 286.5427095679961,
        "timestamp": "2025-12-21T03:56:49.619166+00:00",
        "meta_object_name": "STARLINK-35875",
        "meta_object_id": "2025-299K",
        "meta_epoch": "2025-12-20T20:00:01.999008",
        "meta_mean_motion": 15.96795939,
        "meta_eccentricity": 0.000183,
        "meta_inclination": 42.9996,
        "meta_ra_of_asc_node": 267.4098,
        "meta_arg_of_pericenter": 265.0889,
        "meta_mean_anomaly": 188.0174,
        "meta_ephemeris_type": 0,
        "meta_classification_type": "U",
        "meta_norad_cat_id": 67111,
        "meta_element_set_no": 999,
        "meta_rev_at_epoch": 200,
        "meta_bstar": -0.0032221,
        "meta_mean_motion_dot": -0.01429219,
        "meta_mean_motion_ddot": 0.00060913,
        "tle_line1": "1 67111U 25299K   25354.83335647 -.01429219  60913-3 -32221-2 0  9995",
        "tle_line2": "2 67111  42.9996 267.4098 0001830 265.0889 188.0174 15.96795939  2007"
      },
      "geometry": {
        "type": "Point",
        "coordinates": [
          98.96878752666922,
          -12.386491921237953
        ]
      }
    },
    {
      "type": "Feature",
      "properties": {
        "norad_id": 67112,
        "name": "STARLINK-35906",
        "group": "last-30-days",
        "lat": -14.112715875827238,
        "lon": 100.98330520791284,
        "alt_km": 286.218035794087,
        "timestamp": "2025-12-21T03:56:49.619175+00:00",
        "meta_object_name": "STARLINK-35906",
        "meta_object_id": "2025-299L",
        "meta_epoch": "2025-12-20T20:00:01.999008",
        "meta_mean_motion": 15.96972849,
        "meta_eccentricity": 0.0001794,
        "meta_inclination": 42.9995,
        "meta_ra_of_asc_node": 267.4036,
        "meta_arg_of_pericenter": 265.6256,
        "meta_mean_anomaly": 189.8938,
        "meta_ephemeris_type": 0,
        "meta_classification_type": "U",
        "meta_norad_cat_id": 67112,
        "meta_element_set_no": 999,
        "meta_rev_at_epoch": 200,
        "meta_bstar": -0.0032309,
        "meta_mean_motion_dot": -0.01446949,
        "meta_mean_motion_ddot": 0.00062421,
        "tle_line1": "1 67112U 25299L   25354.83335647 -.01446949  62421-3 -32309-2 0  9998",
        "tle_line2": "2 67112  42.9995 267.4036 0001794 265.6256 189.8938 15.96972849  2006"
      },
      "geometry": {
        "type": "Point",
        "coordinates": [
          100.98330520791284,
          -14.112715875827238
        ]
      }
    },
    {
      "type": "Feature",
      "properties": {
        "norad_id": 67113,
        "name": "STARLINK-35789",
        "group": "last-30-days",
        "lat": -14.941602984253528,
        "lon": 101.96833794766928,
        "alt_km": 285.991946870472,
        "timestamp": "2025-12-21T03:56:49.619183+00:00",
        "meta_object_name": "STARLINK-35789",
        "meta_object_id": "2025-299M",
        "meta_epoch": "2025-12-20T20:00:01.999008",
        "meta_mean_motion": 15.97069894,
        "meta_eccentricity": 0.0001794,
        "meta_inclination": 42.9995,
        "meta_ra_of_asc_node": 267.4006,
        "meta_arg_of_pericenter": 263.4218,
        "meta_mean_anomaly": 193.2574,
        "meta_ephemeris_type": 0,
        "meta_classification_type": "U",
        "meta_norad_cat_id": 67113,
        "meta_element_set_no": 999,
        "meta_rev_at_epoch": 200,
        "meta_bstar": -0.0032716,
        "meta_mean_motion_dot": -0.01472717,
        "meta_mean_motion_ddot": 0.00064542,
        "tle_line1": "1 67113U 25299M   25354.83335647 -.01472717  64542-3 -32716-2 0  9999",
        "tle_line2": "2 67113  42.9995 267.4006 0001794 263.4218 193.2574 15.97069894  2001"
      },
      "geometry": {
        "type": "Point",
        "coordinates": [
          101.96833794766928,
          -14.941602984253528
        ]
      }
    },
    {
      "type": "Feature",
      "properties": {
        "norad_id": 67114,
        "name": "STARLINK-36180",
        "group": "last-30-days",
        "lat": -15.93935183265586,
        "lon": 103.1713355296326,
        "alt_km": 285.79999046825014,
        "timestamp": "2025-12-21T03:56:49.619192+00:00",
        "meta_object_name": "STARLINK-36180",
        "meta_object_id": "2025-299N",
        "meta_epoch": "2025-12-20T20:00:01.999008",
        "meta_mean_motion": 15.97174302,
        "meta_eccentricity": 0.0001754,
        "meta_inclination": 42.9996,
        "meta_ra_of_asc_node": 267.3972,
        "meta_arg_of_pericenter": 263.7873,
        "meta_mean_anomaly": 194.3031,
        "meta_ephemeris_type": 0,
        "meta_classification_type": "U",
        "meta_norad_cat_id": 67114,
        "meta_element_set_no": 999,
        "meta_rev_at_epoch": 211,
        "meta_bstar": -0.0032724,
        "meta_mean_motion_dot": -0.01481502,
        "meta_mean_motion_ddot": 0.00065322,
        "tle_line1": "1 67114U 25299N   25354.83335647 -.01481502  65322-3 -32724-2 0  9998",
        "tle_line2": "2 67114  42.9996 267.3972 0001754 263.7873 194.3031 15.97174302  2113"
      },
      "geometry": {
        "type": "Point",
        "coordinates": [
          103.1713355296326,
          -15.93935183265586
        ]
      }
    },
    {
      "type": "Feature",
      "properties": {
        "norad_id": 67115,
        "name": "STARLINK-35892",
        "group": "last-30-days",
        "lat": -16.7672118947813,
        "lon": 104.18479704700889,
        "alt_km": 285.6344334556188,
        "timestamp": "2025-12-21T03:56:49.619201+00:00",
        "meta_object_name": "STARLINK-35892",
        "meta_object_id": "2025-299P",
        "meta_epoch": "2025-12-20T20:00:01.999008",
        "meta_mean_motion": 15.97260075,
        "meta_eccentricity": 0.0001716,
        "meta_inclination": 42.9996,
        "meta_ra_of_asc_node": 267.3942,
        "meta_arg_of_pericenter": 263.5031,
        "meta_mean_anomaly": 195.768,
        "meta_ephemeris_type": 0,
        "meta_classification_type": "U",
        "meta_norad_cat_id": 67115,
        "meta_element_set_no": 999,
        "meta_rev_at_epoch": 200,
        "meta_bstar": -0.0032784,
        "meta_mean_motion_dot": -0.01491157,
        "meta_mean_motion_ddot": 0.00066165,
        "tle_line1": "1 67115U 25299P   25354.83335647 -.01491157  66165-3 -32784-2 0  9998",
        "tle_line2": "2 67115  42.9996 267.3942 0001716 263.5031 195.7680 15.97260075  2009"
      },
      "geometry": {
        "type": "Point",
        "coordinates": [
          104.18479704700889,
          -16.7672118947813
        ]
      }
    }
  ]
}